0 DELTA 1 DEB
1 07040U 73086AG  13281.47320884  .00000068  00000-0  49045-3 0  4754
2 07040 102.5499 268.1975 0193101 218.7381 297.1152 12.81179933863789
0 DELTA 1 DEB
1 07040U 73086AG  13284.18596969  .00000089  00000-0  57175-3 0  4761
2 07040 102.5498 271.2150 0193115 213.4147 209.0567 12.81180914864138
0 DELTA 1 DEB
1 07040U 73086AG  13286.46483777  .00000060  00000-0  45658-3 0  4779
2 07040 102.5499 273.7498 0193116 208.9367 279.7897 12.81181749864424
0 DELTA 1 DEB
1 07040U 73086AG  13288.49365188  .00000084  00000-0  55162-3 0  4787
2 07040 102.5502 276.0063 0193131 204.9578 277.2039 12.81182414864689
0 DELTA 1 DEB
1 07040U 73086AG  13290.90458826  .00000063  00000-0  46853-3 0  4793
2 07040 102.5509 278.6876 0193135 200.2264 237.0763 12.81183124864992
0 DELTA 1 DEB
1 07040U 73086AG  13292.93053442  .00000089  00000-0  56979-3 0  4803
2 07040 102.5512 280.9408 0193147 196.2568 221.2715 12.81183367865258
0 DELTA 1 DEB
1 07040U 73086AG  13294.96289294  .00000098  00000-0  60873-3 0  4813
2 07040 102.5513 283.2016 0193134 192.2719 235.0457 12.81184020865512
